{
  "type": "FeatureCollection",
  "features": [
    {
      "type": "Feature",
      "properties": {
        "name": "Alpha"
      },
      "geometry": {
        "type": "Polygon",
        "coordinates": [
          [
            [
              0,
              0
            ],
            [
              1,
              0
            ],
            [
              1,
              1
            ],
            [
              0,
              1
            ],
            [
              0,
              0
            ]
          ]
        ]
      }
    },
    {
      "type": "Feature",
      "properties": {
        "name": "Beta"
      },
      "geometry": {
        "type": "Polygon",
        "coordinates": [
          [
            [
              1,
              0
            ],
            [
              2,
              0
            ],
            [
              2,
              1
            ],
            [
              1,
              1
            ],
            [
              1,
              0
            ]
          ]
        ]
      }
    }
  ]
}
